CCSDS_OMM_VERS = 2.0
CREATION_DATE  = 
ORIGINATOR     = 

OBJECT_NAME    = SL-4 R/B
OBJECT_ID      = 2014-021B
CENTER_NAME    = EARTH
REF_FRAME      = TEME
TIME_SYSTEM    = UTC
MEAN_ELEMENT_THEORY = SGP/SGP4

EPOCH          = 2025-12-25T02:25:16.625568
MEAN_MOTION    = 15.36950243
ECCENTRICITY   = .0100853
INCLINATION    = 51.6087
RA_OF_ASC_NODE = 340.5080
ARG_OF_PERICENTER = 190.8581
MEAN_ANOMALY   = 169.0226

EPHEMERIS_TYPE = 0
CLASSIFICATION_TYPE = U
NORAD_CAT_ID   = 39679
ELEMENT_SET_NO = 999
REV_AT_EPOCH   = 64479
BSTAR          = .30059E-3
MEAN_MOTION_DOT = .12677E-3
MEAN_MOTION_DDOT = 0

CCSDS_OMM_VERS = 2.0
CREATION_DATE  = 
ORIGINATOR     = 

OBJECT_NAME    = ALOS-2
OBJECT_ID      = 2014-029A
CENTER_NAME    = EARTH
REF_FRAME      = TEME
TIME_SYSTEM    = UTC
MEAN_ELEMENT_THEORY = SGP/SGP4

EPOCH          = 2025-12-25T04:29:59.599968
MEAN_MOTION    = 14.79467887
ECCENTRICITY   = .00014
INCLINATION    = 97.9222
RA_OF_ASC_NODE = 93.8561
ARG_OF_PERICENTER = 101.1927
MEAN_ANOMALY   = 258.9441

EPHEMERIS_TYPE = 0
CLASSIFICATION_TYPE = U
NORAD_CAT_ID   = 39766
ELEMENT_SET_NO = 999
REV_AT_EPOCH   = 62585
BSTAR          = .31726E-3
MEAN_MOTION_DOT = .2318E-4
MEAN_MOTION_DDOT = 0

CCSDS_OMM_VERS = 2.0
CREATION_DATE  = 
ORIGINATOR     = 

OBJECT_NAME    = YAOGAN-29
OBJECT_ID      = 2015-069A
CENTER_NAME    = EARTH
REF_FRAME      = TEME
TIME_SYSTEM    = UTC
MEAN_ELEMENT_THEORY = SGP/SGP4

EPOCH          = 2025-12-25T05:38:56.755104
MEAN_MOTION    = 14.82897096
ECCENTRICITY   = .0000921
INCLINATION    = 98.0205
RA_OF_ASC_NODE = 22.4463
ARG_OF_PERICENTER = 163.2733
MEAN_ANOMALY   = 196.8510

EPHEMERIS_TYPE = 0
CLASSIFICATION_TYPE = U
NORAD_CAT_ID   = 41038
ELEMENT_SET_NO = 999
REV_AT_EPOCH   = 54484
BSTAR          = .13059E-3
MEAN_MOTION_DOT = .1004E-4
MEAN_MOTION_DDOT = 0

CCSDS_OMM_VERS = 2.0
CREATION_DATE  = 
ORIGINATOR     = 

OBJECT_NAME    = ASTRO-H (HITOMI)
OBJECT_ID      = 2016-012A
CENTER_NAME    = EARTH
REF_FRAME      = TEME
TIME_SYSTEM    = UTC
MEAN_ELEMENT_THEORY = SGP/SGP4

EPOCH          = 2025-12-24T15:49:50.411136
MEAN_MOTION    = 15.09426021
ECCENTRICITY   = .00096922
INCLINATION    = 30.9990
RA_OF_ASC_NODE = 120.5213
ARG_OF_PERICENTER = 298.1550
MEAN_ANOMALY   = 61.8109

EPHEMERIS_TYPE = 0
CLASSIFICATION_TYPE = U
NORAD_CAT_ID   = 41337
ELEMENT_SET_NO = 999
REV_AT_EPOCH   = 54088
BSTAR          = .21729551E-3
MEAN_MOTION_DOT = .3659E-4
MEAN_MOTION_DDOT = 0

CCSDS_OMM_VERS = 2.0
CREATION_DATE  = 
ORIGINATOR     = 

OBJECT_NAME    = HXMT (HUIYAN)
OBJECT_ID      = 2017-034A
CENTER_NAME    = EARTH
REF_FRAME      = TEME
TIME_SYSTEM    = UTC
MEAN_ELEMENT_THEORY = SGP/SGP4

EPOCH          = 2025-12-25T05:46:51.453120
MEAN_MOTION    = 15.16378936
ECCENTRICITY   = .0031233
INCLINATION    = 43.0144
RA_OF_ASC_NODE = 70.2506
ARG_OF_PERICENTER = 125.4996
MEAN_ANOMALY   = 234.8772

EPHEMERIS_TYPE = 0
CLASSIFICATION_TYPE = U
NORAD_CAT_ID   = 42758
ELEMENT_SET_NO = 999
REV_AT_EPOCH   = 47123
BSTAR          = .33943E-3
MEAN_MOTION_DOT = .6556E-4
MEAN_MOTION_DDOT = 0

CCSDS_OMM_VERS = 2.0
CREATION_DATE  = 
ORIGINATOR     = 

OBJECT_NAME    = CZ-2C R/B
OBJECT_ID      = 2018-054D
CENTER_NAME    = EARTH
REF_FRAME      = TEME
TIME_SYSTEM    = UTC
MEAN_ELEMENT_THEORY = SGP/SGP4

EPOCH          = 2025-12-24T23:09:24.164064
MEAN_MOTION    = 15.76639870
ECCENTRICITY   = .0014674
INCLINATION    = 35.1337
RA_OF_ASC_NODE = 97.8390
ARG_OF_PERICENTER = 265.6717
MEAN_ANOMALY   = 94.2340

EPHEMERIS_TYPE = 0
CLASSIFICATION_TYPE = U
NORAD_CAT_ID   = 43521
ELEMENT_SET_NO = 999
REV_AT_EPOCH   = 41698
BSTAR          = .69804E-3
MEAN_MOTION_DOT = .118228E-2
MEAN_MOTION_DDOT = 0

CCSDS_OMM_VERS = 2.0
CREATION_DATE  = 
ORIGINATOR     = 

OBJECT_NAME    = SAOCOM 1A
OBJECT_ID      = 2018-076A
CENTER_NAME    = EARTH
REF_FRAME      = TEME
TIME_SYSTEM    = UTC
MEAN_ELEMENT_THEORY = SGP/SGP4

EPOCH          = 2025-12-25T03:52:21.499680
MEAN_MOTION    = 14.82145835
ECCENTRICITY   = .0001404
INCLINATION    = 97.8843
RA_OF_ASC_NODE = 183.4023
ARG_OF_PERICENTER = 81.4864
MEAN_ANOMALY   = 278.6509

EPHEMERIS_TYPE = 0
CLASSIFICATION_TYPE = U
NORAD_CAT_ID   = 43641
ELEMENT_SET_NO = 999
REV_AT_EPOCH   = 39032
BSTAR          = .23531E-4
MEAN_MOTION_DOT = .135E-5
MEAN_MOTION_DDOT = 0

CCSDS_OMM_VERS = 2.0
CREATION_DATE  = 
ORIGINATOR     = 

OBJECT_NAME    = H-2A R/B
OBJECT_ID      = 2018-084L
CENTER_NAME    = EARTH
REF_FRAME      = TEME
TIME_SYSTEM    = UTC
MEAN_ELEMENT_THEORY = SGP/SGP4

EPOCH          = 2025-12-25T02:56:04.015680
MEAN_MOTION    = 15.37814232
ECCENTRICITY   = .0026547
INCLINATION    = 98.8769
RA_OF_ASC_NODE = 195.7722
ARG_OF_PERICENTER = 282.9906
MEAN_ANOMALY   = 76.8370

EPHEMERIS_TYPE = 0
CLASSIFICATION_TYPE = U
NORAD_CAT_ID   = 43682
ELEMENT_SET_NO = 999
REV_AT_EPOCH   = 39430
BSTAR          = .52852E-3
MEAN_MOTION_DOT = .19792E-3
MEAN_MOTION_DDOT = 0

CCSDS_OMM_VERS = 2.0
CREATION_DATE  = 
ORIGINATOR     = 

OBJECT_NAME    = SAOCOM 1B
OBJECT_ID      = 2020-059A
CENTER_NAME    = EARTH
REF_FRAME      = TEME
TIME_SYSTEM    = UTC
MEAN_ELEMENT_THEORY = SGP/SGP4

EPOCH          = 2025-12-25T04:37:22.763712
MEAN_MOTION    = 14.82148249
ECCENTRICITY   = .0001399
INCLINATION    = 97.8838
RA_OF_ASC_NODE = 182.5329
ARG_OF_PERICENTER = 86.1948
MEAN_ANOMALY   = 273.9425

EPHEMERIS_TYPE = 0
CLASSIFICATION_TYPE = U
NORAD_CAT_ID   = 46265
ELEMENT_SET_NO = 999
REV_AT_EPOCH   = 28771
BSTAR          = .25724E-4
MEAN_MOTION_DOT = .153E-5
MEAN_MOTION_DDOT = 0

CCSDS_OMM_VERS = 2.0
CREATION_DATE  = 
ORIGINATOR     = 

OBJECT_NAME    = CSS (TIANHE)
OBJECT_ID      = 2021-035A
CENTER_NAME    = EARTH
REF_FRAME      = TEME
TIME_SYSTEM    = UTC
MEAN_ELEMENT_THEORY = SGP/SGP4

EPOCH          = 2025-12-25T01:47:48.424128
MEAN_MOTION    = 15.59658287
ECCENTRICITY   = .0008271
INCLINATION    = 41.4684
RA_OF_ASC_NODE = 301.7934
ARG_OF_PERICENTER = 139.6040
MEAN_ANOMALY   = 220.5414

EPHEMERIS_TYPE = 0
CLASSIFICATION_TYPE = U
NORAD_CAT_ID   = 48274
ELEMENT_SET_NO = 999
REV_AT_EPOCH   = 26595
BSTAR          = .20421E-3
MEAN_MOTION_DOT = .16485E-3
MEAN_MOTION_DDOT = 0

CCSDS_OMM_VERS = 2.0
CREATION_DATE  = 
ORIGINATOR     = 

OBJECT_NAME    = CZ-2C R/B
OBJECT_ID      = 2022-058K
CENTER_NAME    = EARTH
REF_FRAME      = TEME
TIME_SYSTEM    = UTC
MEAN_ELEMENT_THEORY = SGP/SGP4

EPOCH          = 2025-12-24T16:17:00.555360
MEAN_MOTION    = 15.49077723
ECCENTRICITY   = .00446437
INCLINATION    = 50.1922
RA_OF_ASC_NODE = 342.6388
ARG_OF_PERICENTER = 247.7057
MEAN_ANOMALY   = 111.9175

EPHEMERIS_TYPE = 0
CLASSIFICATION_TYPE = U
NORAD_CAT_ID   = 52794
ELEMENT_SET_NO = 999
REV_AT_EPOCH   = 19848
BSTAR          = .47985004E-3
MEAN_MOTION_DOT = .27249E-3
MEAN_MOTION_DDOT = 0

